{
  "type": "FeatureCollection",
  "features": [
    {
      "type": "Feature",
      "properties": {
        "norad_id": 30040,
        "name": "FENGYUN 1C DEB",
        "group": "fengyun-1c-debris",
        "lat": 37.61239490655183,
        "lon": -1.6974194466928165,
        "alt_km": 765.1633571930079,
        "timestamp": "2025-12-14T09:36:23.309958+00:00",
        "meta_object_name": "FENGYUN 1C DEB",
        "meta_object_id": "1999-025NR",
        "meta_epoch": "2025-12-13T00:17:24.358272",
        "meta_mean_motion": 14.37123449,
        "meta_eccentricity": 0.00323876,
        "meta_inclination": 98.2342,
        "meta_ra_of_asc_node": 3.3795,
        "meta_arg_of_pericenter": 312.2165,
        "meta_mean_anomaly": 107.7302,
        "meta_ephemeris_type": 0,
        "meta_classification_type": "U",
        "meta_norad_cat_id": 30040,
        "meta_element_set_no": 999,
        "meta_rev_at_epoch": 97932,
        "meta_bstar": 0.0024331197,
        "meta_mean_motion_dot": 7.239e-05,
        "meta_mean_motion_ddot": 0,
        "tle_line1": "1 30040U 99025NR  25347.01208748  .00007239  00000+0  24331-2 0  9998",
        "tle_line2": "2 30040  98.2342   3.3795 0032387 312.2165 107.7302 14.37123449979325"
      },
      "geometry": {
        "type": "Point",
        "coordinates": [
          -1.6974194466928165,
          37.61239490655183
        ]
      }
    },
    {
      "type": "Feature",
      "properties": {
        "norad_id": 30041,
        "name": "FENGYUN 1C DEB",
        "group": "fengyun-1c-debris",
        "lat": -17.653016144667355,
        "lon": -88.04996539582935,
        "alt_km": 828.9857746066164,
        "timestamp": "2025-12-14T09:36:23.309968+00:00",
        "meta_object_name": "FENGYUN 1C DEB",
        "meta_object_id": "1999-025NS",
        "meta_epoch": "2025-12-13T07:29:58.790400",
        "meta_mean_motion": 14.13187466,
        "meta_eccentricity": 0.00348323,
        "meta_inclination": 99.467,
        "meta_ra_of_asc_node": 93.8441,
        "meta_arg_of_pericenter": 215.5134,
        "meta_mean_anomaly": 211.3256,
        "meta_ephemeris_type": 0,
        "meta_classification_type": "U",
        "meta_norad_cat_id": 30041,
        "meta_element_set_no": 999,
        "meta_rev_at_epoch": 97295,
        "meta_bstar": 0.00075282149,
        "meta_mean_motion_dot": 1.368e-05,
        "meta_mean_motion_ddot": 0,
        "tle_line1": "1 30041U 99025NS  25347.31248600  .00001368  00000+0  75282-3 0  9992",
        "tle_line2": "2 30041  99.4670  93.8441 0034832 215.5134 211.3256 14.13187466972958"
      },
      "geometry": {
        "type": "Point",
        "coordinates": [
          -88.04996539582935,
          -17.653016144667355
        ]
      }
    },
    {
      "type": "Feature",
      "properties": {
        "norad_id": 30043,
        "name": "FENGYUN 1C DEB",
        "group": "fengyun-1c-debris",
        "lat": -80.3518882272656,
        "lon": 149.583226603566,
        "alt_km": 992.3182382831128,
        "timestamp": "2025-12-14T09:36:23.309978+00:00",
        "meta_object_name": "FENGYUN 1C DEB",
        "meta_object_id": "1999-025NU",
        "meta_epoch": "2025-12-13T05:21:07.858368",
        "meta_mean_motion": 14.23577545,
        "meta_eccentricity": 0.02837007,
        "meta_inclination": 98.6269,
        "meta_ra_of_asc_node": 85.1728,
        "meta_arg_of_pericenter": 129.5655,
        "meta_mean_anomaly": 233.0958,
        "meta_ephemeris_type": 0,
        "meta_classification_type": "U",
        "meta_norad_cat_id": 30043,
        "meta_element_set_no": 999,
        "meta_rev_at_epoch": 97352,
        "meta_bstar": 0.0015935245,
        "meta_mean_motion_dot": 5.46e-05,
        "meta_mean_motion_ddot": 0,
        "tle_line1": "1 30043U 99025NU  25347.22300762  .00005460  00000+0  15935-2 0  9997",
        "tle_line2": "2 30043  98.6269  85.1728 0283700 129.5655 233.0958 14.23577545973525"
      },
      "geometry": {
        "type": "Point",
        "coordinates": [
          149.583226603566,
          -80.3518882272656
        ]
      }
    },
    {
      "type": "Feature",
      "properties": {
        "norad_id": 30044,
        "name": "FENGYUN 1C DEB",
        "group": "fengyun-1c-debris",
        "lat": -41.30992558404879,
        "lon": -84.05575094346169,
        "alt_km": 781.4910469262159,
        "timestamp": "2025-12-14T09:36:23.309989+00:00",
        "meta_object_name": "FENGYUN 1C DEB",
        "meta_object_id": "1999-025NV",
        "meta_epoch": "2025-12-13T12:16:55.244928",
        "meta_mean_motion": 14.50676859,
        "meta_eccentricity": 0.00794292,
        "meta_inclination": 98.211,
        "meta_ra_of_asc_node": 267.7871,
        "meta_arg_of_pericenter": 164.795,
        "meta_mean_anomaly": 195.5659,
        "meta_ephemeris_type": 0,
        "meta_classification_type": "U",
        "meta_norad_cat_id": 30044,
        "meta_element_set_no": 999,
        "meta_rev_at_epoch": 98050,
        "meta_bstar": 0.0020226897,
        "meta_mean_motion_dot": 8.237e-05,
        "meta_mean_motion_ddot": 0,
        "tle_line1": "1 30044U 99025NV  25347.51175052  .00008237  00000+0  20227-2 0  9997",
        "tle_line2": "2 30044  98.2110 267.7871 0079429 164.7950 195.5659 14.50676859980508"
      },
      "geometry": {
        "type": "Point",
        "coordinates": [
          -84.05575094346169,
          -41.30992558404879
        ]
      }
    },
    {
      "type": "Feature",
      "properties": {
        "norad_id": 30045,
        "name": "FENGYUN 1C DEB",
        "group": "fengyun-1c-debris",
        "lat": -52.12684931685402,
        "lon": 36.03395612184085,
        "alt_km": 891.4511030149806,
        "timestamp": "2025-12-14T09:36:23.309999+00:00",
        "meta_object_name": "FENGYUN 1C DEB",
        "meta_object_id": "1999-025NW",
        "meta_epoch": "2025-12-13T15:51:06.519168",
        "meta_mean_motion": 14.21614662,
        "meta_eccentricity": 0.00947354,
        "meta_inclination": 99.1795,
        "meta_ra_of_asc_node": 23.2647,
        "meta_arg_of_pericenter": 110.754,
        "meta_mean_anomaly": 12.6241,
        "meta_ephemeris_type": 0,
        "meta_classification_type": "U",
        "meta_norad_cat_id": 30045,
        "meta_element_set_no": 999,
        "meta_rev_at_epoch": 96701,
        "meta_bstar": 0.0022928365,
        "meta_mean_motion_dot": 5.22e-05,
        "meta_mean_motion_ddot": 0,
        "tle_line1": "1 30045U 99025NW  25347.66049212  .00005220  00000+0  22928-2 0  9991",
        "tle_line2": "2 30045  99.1795  23.2647 0094735 110.7540  12.6241 14.21614662967016"
      },
      "geometry": {
        "type": "Point",
        "coordinates": [
          36.03395612184085,
          -52.12684931685402
        ]
      }
    },
    {
      "type": "Feature",
      "properties": {
        "norad_id": 30047,
        "name": "FENGYUN 1C DEB",
        "group": "fengyun-1c-debris",
        "lat": 78.1575099489296,
        "lon": 88.94965425070177,
        "alt_km": 957.9760963616509,
        "timestamp": "2025-12-14T09:36:23.310009+00:00",
        "meta_object_name": "FENGYUN 1C DEB",
        "meta_object_id": "1999-025NY",
        "meta_epoch": "2025-12-13T16:02:57.001056",
        "meta_mean_motion": 13.94357347,
        "meta_eccentricity": 0.01256609,
        "meta_inclination": 99.9193,
        "meta_ra_of_asc_node": 144.7292,
        "meta_arg_of_pericenter": 320.3341,
        "meta_mean_anomaly": 51.7678,
        "meta_ephemeris_type": 0,
        "meta_classification_type": "U",
        "meta_norad_cat_id": 30047,
        "meta_element_set_no": 999,
        "meta_rev_at_epoch": 95929,
        "meta_bstar": 0.0008792179,
        "meta_mean_motion_dot": 1.198e-05,
        "meta_mean_motion_ddot": 0,
        "tle_line1": "1 30047U 99025NY  25347.66871529  .00001198  00000+0  87922-3 0  9993",
        "tle_line2": "2 30047  99.9193 144.7292 0125660 320.3341  51.7678 13.94357347959295"
      },
      "geometry": {
        "type": "Point",
        "coordinates": [
          88.94965425070177,
          78.1575099489296
        ]
      }
    },
    {
      "type": "Feature",
      "properties": {
        "norad_id": 30048,
        "name": "FENGYUN 1C DEB",
        "group": "fengyun-1c-debris",
        "lat": -8.606161669790534,
        "lon": -144.58395288093615,
        "alt_km": 1014.8910564755706,
        "timestamp": "2025-12-14T09:36:23.310020+00:00",
        "meta_object_name": "FENGYUN 1C DEB",
        "meta_object_id": "1999-025NZ",
        "meta_epoch": "2025-12-13T11:37:00.256800",
        "meta_mean_motion": 13.79894222,
        "meta_eccentricity": 0.01862554,
        "meta_inclination": 98.6665,
        "meta_ra_of_asc_node": 213.2536,
        "meta_arg_of_pericenter": 242.9094,
        "meta_mean_anomaly": 237.4421,
        "meta_ephemeris_type": 0,
        "meta_classification_type": "U",
        "meta_norad_cat_id": 30048,
        "meta_element_set_no": 999,
        "meta_rev_at_epoch": 95136,
        "meta_bstar": 0.00038031637,
        "meta_mean_motion_dot": 4.09e-06,
        "meta_mean_motion_ddot": 0,
        "tle_line1": "1 30048U 99025NZ  25347.48403075  .00000409  00000+0  38032-3 0  9993",
        "tle_line2": "2 30048  98.6665 213.2536 0186255 242.9094 237.4421 13.79894222951360"
      },
      "geometry": {
        "type": "Point",
        "coordinates": [
          -144.58395288093615,
          -8.606161669790534
        ]
      }
    }
  ]
}